{
  "norad_id": 67047,
  "name": "STARLINK-35779",
  "history": [
    {
      "epoch": "2026-03-28T20:53:54.604032",
      "apogee_km": 485.0727176816572,
      "perigee_km": 481.01432940198083,
      "latitude_deg": 41.468123094491595,
      "longitude_deg": -111.70599552011117,
      "semi_major_axis_km": 6861.180523541819,
      "eccentricity": 0.00029575,
      "inclination_deg": 42.9994,
      "raan_deg": 289.6718,
      "arg_perigee_deg": 275.1936,
      "mean_anomaly_deg": 84.8578,
      "mean_motion_rev_day": 15.27581861
    }
  ]
}